{"type": "FeatureCollection", "features": [ {"type": "Feature", "properties": {"norad_id": 37532, "name": "COSMOS 2251 DEB", "group": "cosmos-2251-debris", "lat": -67.77989363300823, "lon": 62.54934451784516, "alt_km": 748.969159569282, "timestamp": "2025-12-22T05:49:03.899080+00:00", "meta": {"OBJECT_NAME": "COSMOS 2251 DEB", "OBJECT_ID": "1993-036BNM", "EPOCH": "2025-12-14T09:22:45.259968", "MEAN_MOTION": 14.42410404, "ECCENTRICITY": 0.00160101, "INCLINATION": 74.0496, "RA_OF_ASC_NODE": 212.6604, "ARG_OF_PERICENTER": 313.2255, "MEAN_ANOMALY": 226.6563, "EPHEMERIS_TYPE": 0, "CLASSIFICATION_TYPE": "U", "NORAD_CAT_ID": 37532, "ELEMENT_SET_NO": 999, "REV_AT_EPOCH": 84939, "BSTAR": 0.00027461522, "MEAN_MOTION_DOT": 8.83e-06, "MEAN_MOTION_DDOT": 0}, "tle": {"line1": "1 37532U 93036BNM 25348.39080162  .00000883  00000+0  27462-3 0  9994", "line2": "2 37532  74.0496 212.6604 0016010 313.2255 226.6563 14.42410404849399"}}, "geometry": {"type": "Point", "coordinates": [62.54934451784516, -67.77989363300823]}}, {"type": "Feature", "properties": {"norad_id": 37533, "name": "COSMOS 2251 DEB", "group": "cosmos-2251-debris", "lat": 32.165343530784426, "lon": -174.59569185267236, "alt_km": 959.1698598349294, "timestamp": "2025-12-22T05:49:03.899090+00:00", "meta": {"OBJECT_NAME": "COSMOS 2251 DEB", "OBJECT_ID": "1993-036BNN", "EPOCH": "2025-12-17T06:38:38.162976", "MEAN_MOTION": 14.12190824, "ECCENTRICITY": 0.0157786, "INCLINATION": 74.0692, "RA_OF_ASC_NODE": 183.8069, "ARG_OF_PERICENTER": 239.4795, "MEAN_ANOMALY": 119.0691, "EPHEMERIS_TYPE": 0, "CLASSIFICATION_TYPE": "U", "NORAD_CAT_ID": 37533, "ELEMENT_SET_NO": 999, "REV_AT_EPOCH": 62985, "BSTAR": 0.0010470743, "MEAN_MOTION_DOT": 2.138e-05, "MEAN_MOTION_DDOT": 0}, "tle": {"line1": "1 37533U 93036BNN 25351.27683059  .00002138  00000+0  10471-2 0  9996", "line2": "2 37533  74.0692 183.8069 0157786 239.4795 119.0691 14.12190824629858"}}, "geometry": {"type": "Point", "coordinates": [-174.59569185267236, 32.165343530784426]}}, {"type": "Feature", "properties": {"norad_id": 37535, "name": "COSMOS 2251 DEB", "group": "cosmos-2251-debris", "lat": 72.50845264163983, "lon": 170.01584712153655, "alt_km": 692.5824072547357, "timestamp": "2025-12-22T05:49:03.899100+00:00", "meta": {"OBJECT_NAME": "COSMOS 2251 DEB", "OBJECT_ID": "1993-036BNQ", "EPOCH": "2025-12-21T13:13:10.155072", "MEAN_MOTION": 14.58509294, "ECCENTRICITY": 0.0027296, "INCLINATION": 74.0234, "RA_OF_ASC_NODE": 56.7149, "ARG_OF_PERICENTER": 194.5443, "MEAN_ANOMALY": 233.1239, "EPHEMERIS_TYPE": 0, "CLASSIFICATION_TYPE": "U", "NORAD_CAT_ID": 37535, "ELEMENT_SET_NO": 999, "REV_AT_EPOCH": 85453, "BSTAR": 0.00051717, "MEAN_MOTION_DOT": 2.386e-05, "MEAN_MOTION_DDOT": 0}, "tle": {"line1": "1 37535U 93036BNQ 25355.55081198  .00002386  00000+0  51717-3 0  9993", "line2": "2 37535  74.0234  56.7149 0027296 194.5443 233.1239 14.58509294854538"}}, "geometry": {"type": "Point", "coordinates": [170.01584712153655, 72.50845264163983]}}, {"type": "Feature", "properties": {"norad_id": 37537, "name": "COSMOS 2251 DEB", "group": "cosmos-2251-debris", "lat": -64.30835918193064, "lon": -148.96677610017582, "alt_km": 776.5569606649178, "timestamp": "2025-12-22T05:49:03.899110+00:00", "meta": {"OBJECT_NAME": "COSMOS 2251 DEB", "OBJECT_ID": "1993-036BNS", "EPOCH": "2025-12-20T10:42:49.127616", "MEAN_MOTION": 14.37501224, "ECCENTRICITY": 0.00506405, "INCLINATION": 74.0118, "RA_OF_ASC_NODE": 250.923, "ARG_OF_PERICENTER": 29.0994, "MEAN_ANOMALY": 331.2965, "EPHEMERIS_TYPE": 0, "CLASSIFICATION_TYPE": "U", "NORAD_CAT_ID": 37537, "ELEMENT_SET_NO": 999, "REV_AT_EPOCH": 85144, "BSTAR": 0.00015589404, "MEAN_MOTION_DOT": 4.47e-06, "MEAN_MOTION_DDOT": 0}, "tle": {"line1": "1 37537U 93036BNS 25354.44640194  .00000447  00000+0  15589-3 0  9992", "line2": "2 37537  74.0118 250.9230 0050640  29.0994 331.2965 14.37501224851447"}}, "geometry": {"type": "Point", "coordinates": [-148.96677610017582, -64.30835918193064]}}, {"type": "Feature", "properties": {"norad_id": 37546, "name": "COSMOS 2251 DEB", "group": "cosmos-2251-debris", "lat": 43.60780207915028, "lon": 95.0893147037116, "alt_km": 619.5045472859138, "timestamp": "2025-12-22T05:49:03.899121+00:00", "meta": {"OBJECT_NAME": "COSMOS 2251 DEB", "OBJECT_ID": "1993-036BPB", "EPOCH": "2025-12-21T05:17:26.036736", "MEAN_MOTION": 14.80807672, "ECCENTRICITY": 0.0005286, "INCLINATION": 74.0227, "RA_OF_ASC_NODE": 81.2679, "ARG_OF_PERICENTER": 78.5056, "MEAN_ANOMALY": 281.6714, "EPHEMERIS_TYPE": 0, "CLASSIFICATION_TYPE": "U", "NORAD_CAT_ID": 37546, "ELEMENT_SET_NO": 999, "REV_AT_EPOCH": 66013, "BSTAR": 0.0017047, "MEAN_MOTION_DOT": 0.00013143, "MEAN_MOTION_DDOT": 0}, "tle": {"line1": "1 37546U 93036BPB 25355.22044024  .00013143  00000+0  17047-2 0  9996", "line2": "2 37546  74.0227  81.2679 0005286  78.5056 281.6714 14.80807672660132"}}, "geometry": {"type": "Point", "coordinates": [95.0893147037116, 43.60780207915028]}}, {"type": "Feature", "properties": {"norad_id": 37959, "name": "COSMOS 2251 DEB", "group": "cosmos-2251-debris", "lat": -9.989282758548415, "lon": -138.26951839881616, "alt_km": 662.9795836901321, "timestamp": "2025-12-22T05:49:03.899131+00:00", "meta": {"OBJECT_NAME": "COSMOS 2251 DEB", "OBJECT_ID": "1993-036BPJ", "EPOCH": "2025-12-21T11:07:20.053056", "MEAN_MOTION": 14.58192555, "ECCENTRICITY": 0.00573097, "INCLINATION": 74.0116, "RA_OF_ASC_NODE": 40.3196, "ARG_OF_PERICENTER": 181.2544, "MEAN_ANOMALY": 241.3258, "EPHEMERIS_TYPE": 0, "CLASSIFICATION_TYPE": "U", "NORAD_CAT_ID": 37959, "ELEMENT_SET_NO": 999, "REV_AT_EPOCH": 80254, "BSTAR": 0.0004490012, "MEAN_MOTION_DOT": 2.089e-05, "MEAN_MOTION_DDOT": 0}, "tle": {"line1": "1 37959U 93036BPJ 25355.46342654  .00002089  00000+0  44900-3 0  9996", "line2": "2 37959  74.0116  40.3196 0057309 181.2544 241.3258 14.58192555802545"}}, "geometry": {"type": "Point", "coordinates": [-138.26951839881616, -9.989282758548415]}}, {"type": "Feature", "properties": {"norad_id": 37960, "name": "COSMOS 2251 DEB", "group": "cosmos-2251-debris", "lat": 49.676683411869256, "lon": -29.439928459652396, "alt_km": 766.1926631795777, "timestamp": "2025-12-22T05:49:03.899141+00:00", "meta": {"OBJECT_NAME": "COSMOS 2251 DEB", "OBJECT_ID": "1993-036BPK", "EPOCH": "2025-12-21T05:19:33.246912", "MEAN_MOTION": 14.07880113, "ECCENTRICITY": 0.0248301, "INCLINATION": 74.0587, "RA_OF_ASC_NODE": 172.0268, "ARG_OF_PERICENTER": 188.6422, "MEAN_ANOMALY": 171.0406, "EPHEMERIS_TYPE": 0, "CLASSIFICATION_TYPE": "U", "NORAD_CAT_ID": 37960, "ELEMENT_SET_NO": 999, "REV_AT_EPOCH": 77525, "BSTAR": 0.00064412, "MEAN_MOTION_DOT": 1.424e-05, "MEAN_MOTION_DDOT": 0}, "tle": {"line1": "1 37960U 93036BPK 25355.22191258  .00001424  00000+0  64412-3 0  9996", "line2": "2 37960  74.0587 172.0268 0248301 188.6422 171.0406 14.07880113775251"}}, "geometry": {"type": "Point", "coordinates": [-29.439928459652396, 49.676683411869256]}}, {"type": "Feature", "properties": {"norad_id": 37961, "name": "COSMOS 2251 DEB", "group": "cosmos-2251-debris", "lat": -65.02090677184738, "lon": -23.05963725603514, "alt_km": 688.800339939784, "timestamp": "2025-12-22T05:49:03.899152+00:00", "meta": {"OBJECT_NAME": "COSMOS 2251 DEB", "OBJECT_ID": "1993-036BPL", "EPOCH": "2025-12-13T03:18:27.462240", "MEAN_MOTION": 14.57979799, "ECCENTRICITY": 0.00406759, "INCLINATION": 74.0407, "RA_OF_ASC_NODE": 136.3488, "ARG_OF_PERICENTER": 216.8805, "MEAN_ANOMALY": 142.9561, "EPHEMERIS_TYPE": 0, "CLASSIFICATION_TYPE": "U", "NORAD_CAT_ID": 37961, "ELEMENT_SET_NO": 999, "REV_AT_EPOCH": 80071, "BSTAR": 0.001729191, "MEAN_MOTION_DOT": 8.011e-05, "MEAN_MOTION_DDOT": 0}, "tle": {"line1": "1 37961U 93036BPL 25347.13781785  .00008011  00000+0  17292-2 0  9990", "line2": "2 37961  74.0407 136.3488 0040675 216.8805 142.9561 14.57979799800716"}}, "geometry": {"type": "Point", "coordinates": [-23.05963725603514, -65.02090677184738]}}, {"type": "Feature", "properties": {"norad_id": 37966, "name": "COSMOS 2251 DEB", "group": "cosmos-2251-debris", "lat": 70.62893443374101, "lon": -94.40932768679843, "alt_km": 511.30338576171835, "timestamp": "2025-12-22T05:49:03.899163+00:00", "meta": {"OBJECT_NAME": "COSMOS 2251 DEB", "OBJECT_ID": "1993-036BPR", "EPOCH": "2025-12-13T08:51:38.421216", "MEAN_MOTION": 15.12745257, "ECCENTRICITY": 0.0008827, "INCLINATION": 73.9781, "RA_OF_ASC_NODE": 229.2381, "ARG_OF_PERICENTER": 105.5668, "MEAN_ANOMALY": 254.6501, "EPHEMERIS_TYPE": 0, "CLASSIFICATION_TYPE": "U", "NORAD_CAT_ID": 37966, "ELEMENT_SET_NO": 999, "REV_AT_EPOCH": 85352, "BSTAR": 0.0033929, "MEAN_MOTION_DOT": 0.00060007, "MEAN_MOTION_DDOT": 0}, "tle": {"line1": "1 37966U 93036BPR 25347.36919469  .00060007  00000+0  33929-2 0  9990", "line2": "2 37966  73.9781 229.2381 0008827 105.5668 254.6501 15.12745257853526"}}, "geometry": {"type": "Point", "coordinates": [-94.40932768679843, 70.62893443374101]}}, {"type": "Feature", "properties": {"norad_id": 37967, "name": "COSMOS 2251 DEB", "group": "cosmos-2251-debris", "lat": 37.12438872552971, "lon": -72.75212307353674, "alt_km": 798.5163788511345, "timestamp": "2025-12-22T05:49:03.899173+00:00", "meta": {"OBJECT_NAME": "COSMOS 2251 DEB", "OBJECT_ID": "1993-036BPS", "EPOCH": "2025-12-21T02:29:02.378400", "MEAN_MOTION": 14.40598086, "ECCENTRICITY": 0.01510517, "INCLINATION": 74.0159, "RA_OF_ASC_NODE": 121.8881, "ARG_OF_PERICENTER": 258.8957, "MEAN_ANOMALY": 99.5182, "EPHEMERIS_TYPE": 0, "CLASSIFICATION_TYPE": "U", "NORAD_CAT_ID": 37967, "ELEMENT_SET_NO": 999, "REV_AT_EPOCH": 64856, "BSTAR": 0.001164816, "MEAN_MOTION_DOT": 4.223e-05, "MEAN_MOTION_DDOT": 0}, "tle": {"line1": "1 37967U 93036BPS 25355.10349975  .00004223  00000+0  11648-2 0  9993", "line2": "2 37967  74.0159 121.8881 0151051 258.8957  99.5182 14.40598086648564"}}, "geometry": {"type": "Point", "coordinates": [-72.75212307353674, 37.12438872552971]}}]}